[{"OBJECT_NAME":"ONEWEB-0688","OBJECT_ID":"2024-188C","EPOCH":"2026-02-22T21:35:25.539360","MEAN_MOTION":13.17649023,"ECCENTRICITY":0.000199,"INCLINATION":87.911,"RA_OF_ASC_NODE":28.5837,"ARG_OF_PERICENTER":44.9645,"MEAN_ANOMALY":315.1648,"EPHEMERIS_TYPE":0,"CLASSIFICATION_TYPE":"U","NORAD_CAT_ID":61596,"ELEMENT_SET_NO":999,"REV_AT_EPOCH":7084,"BSTAR":-3.6314e-5,"MEAN_MOTION_DOT":-1.0e-8,"MEAN_MOTION_DDOT":0},{"OBJECT_NAME":"ONEWEB-0689","OBJECT_ID":"2024-188D","EPOCH":"2026-02-23T04:52:53.848128","MEAN_MOTION":13.11415791,"ECCENTRICITY":0.00021903,"INCLINATION":87.8849,"RA_OF_ASC_NODE":43.7036,"ARG_OF_PERICENTER":83.9076,"MEAN_ANOMALY":276.2302,"EPHEMERIS_TYPE":0,"CLASSIFICATION_TYPE":"U","NORAD_CAT_ID":61597,"ELEMENT_SET_NO":999,"REV_AT_EPOCH":6951,"BSTAR":0.0006039467,"MEAN_MOTION_DOT":2.27e-6,"MEAN_MOTION_DDOT":0},{"OBJECT_NAME":"ONEWEB-0690","OBJECT_ID":"2024-188E","EPOCH":"2026-02-22T23:37:56.332128","MEAN_MOTION":13.11413493,"ECCENTRICITY":0.00013101,"INCLINATION":87.8846,"RA_OF_ASC_NODE":43.7675,"ARG_OF_PERICENTER":102.5904,"MEAN_ANOMALY":257.5371,"EPHEMERIS_TYPE":0,"CLASSIFICATION_TYPE":"U","NORAD_CAT_ID":61598,"ELEMENT_SET_NO":999,"REV_AT_EPOCH":6966,"BSTAR":-0.0012114411,"MEAN_MOTION_DOT":-4.17e-6,"MEAN_MOTION_DDOT":0},{"OBJECT_NAME":"ONEWEB-0691","OBJECT_ID":"2024-188F","EPOCH":"2026-02-23T05:00:12.872448","MEAN_MOTION":13.11416245,"ECCENTRICITY":0.00018708,"INCLINATION":87.8852,"RA_OF_ASC_NODE":43.6227,"ARG_OF_PERICENTER":73.0377,"MEAN_ANOMALY":287.0956,"EPHEMERIS_TYPE":0,"CLASSIFICATION_TYPE":"U","NORAD_CAT_ID":61599,"ELEMENT_SET_NO":999,"REV_AT_EPOCH":6954,"BSTAR":-0.00015937229,"MEAN_MOTION_DOT":-4.4e-7,"MEAN_MOTION_DDOT":0},{"OBJECT_NAME":"ONEWEB-0692","OBJECT_ID":"2024-188G","EPOCH":"2026-02-23T05:29:30.599232","MEAN_MOTION":13.11418328,"ECCENTRICITY":0.00025949,"INCLINATION":87.8835,"RA_OF_ASC_NODE":43.7536,"ARG_OF_PERICENTER":101.5314,"MEAN_ANOMALY":258.6106,"EPHEMERIS_TYPE":0,"CLASSIFICATION_TYPE":"U","NORAD_CAT_ID":61600,"ELEMENT_SET_NO":999,"REV_AT_EPOCH":6953,"BSTAR":-0.0012808762,"MEAN_MOTION_DOT":-4.41e-6,"MEAN_MOTION_DDOT":0},{"OBJECT_NAME":"ONEWEB-0693","OBJECT_ID":"2024-188H","EPOCH":"2026-02-23T05:09:49.547520","MEAN_MOTION":13.1765005,"ECCENTRICITY":0.00010459,"INCLINATION":87.9111,"RA_OF_ASC_NODE":28.5426,"ARG_OF_PERICENTER":91.8465,"MEAN_ANOMALY":268.2786,"EPHEMERIS_TYPE":0,"CLASSIFICATION_TYPE":"U","NORAD_CAT_ID":61601,"ELEMENT_SET_NO":999,"REV_AT_EPOCH":7087,"BSTAR":0.00011693393,"MEAN_MOTION_DOT":5.8e-7,"MEAN_MOTION_DDOT":0},{"OBJECT_NAME":"ONEWEB-0695","OBJECT_ID":"2024-188J","EPOCH":"2026-02-23T04:55:21.847872","MEAN_MOTION":13.11415294,"ECCENTRICITY":0.00024034,"INCLINATION":87.8835,"RA_OF_ASC_NODE":43.749,"ARG_OF_PERICENTER":89.631,"MEAN_ANOMALY":270.5093,"EPHEMERIS_TYPE":0,"CLASSIFICATION_TYPE":"U","NORAD_CAT_ID":61602,"ELEMENT_SET_NO":999,"REV_AT_EPOCH":6952,"BSTAR":0.00045035099,"MEAN_MOTION_DOT":1.72e-6,"MEAN_MOTION_DDOT":0},{"OBJECT_NAME":"ONEWEB-0697","OBJECT_ID":"2024-188K","EPOCH":"2026-02-23T05:41:43.589184","MEAN_MOTION":13.11418943,"ECCENTRICITY":0.00024487,"INCLINATION":87.8835,"RA_OF_ASC_NODE":43.7317,"ARG_OF_PERICENTER":100.8061,"MEAN_ANOMALY":259.3343,"EPHEMERIS_TYPE":0,"CLASSIFICATION_TYPE":"U","NORAD_CAT_ID":61603,"ELEMENT_SET_NO":999,"REV_AT_EPOCH":6951,"BSTAR":-0.00051694802,"MEAN_MOTION_DOT":-1.71e-6,"MEAN_MOTION_DDOT":0},{"OBJECT_NAME":"ONEWEB-0698","OBJECT_ID":"2024-188L","EPOCH":"2026-02-23T05:09:58.839840","MEAN_MOTION":13.11416807,"ECCENTRICITY":0.0002078,"INCLINATION":87.8832,"RA_OF_ASC_NODE":43.752,"ARG_OF_PERICENTER":121.3759,"MEAN_ANOMALY":238.7573,"EPHEMERIS_TYPE":0,"CLASSIFICATION_TYPE":"U","NORAD_CAT_ID":61604,"ELEMENT_SET_NO":999,"REV_AT_EPOCH":6953,"BSTAR":-0.00077847139,"MEAN_MOTION_DOT":-2.63e-6,"MEAN_MOTION_DDOT":0},{"OBJECT_NAME":"ONEWEB-0699","OBJECT_ID":"2024-188M","EPOCH":"2026-02-23T01:27:55.640160","MEAN_MOTION":13.10375049,"ECCENTRICITY":0.000231,"INCLINATION":87.8769,"RA_OF_ASC_NODE":58.9948,"ARG_OF_PERICENTER":103.4392,"MEAN_ANOMALY":256.6993,"EPHEMERIS_TYPE":0,"CLASSIFICATION_TYPE":"U","NORAD_CAT_ID":61605,"ELEMENT_SET_NO":999,"REV_AT_EPOCH":6836,"BSTAR":0.00072925708,"MEAN_MOTION_DOT":2.67e-6,"MEAN_MOTION_DDOT":0},{"OBJECT_NAME":"ONEWEB-0700","OBJECT_ID":"2024-188N","EPOCH":"2026-02-23T07:00:10.599840","MEAN_MOTION":13.10375073,"ECCENTRICITY":0.00025299,"INCLINATION":87.8782,"RA_OF_ASC_NODE":58.8415,"ARG_OF_PERICENTER":94.5658,"MEAN_ANOMALY":265.5759,"EPHEMERIS_TYPE":0,"CLASSIFICATION_TYPE":"U","NORAD_CAT_ID":61606,"ELEMENT_SET_NO":999,"REV_AT_EPOCH":6838,"BSTAR":0.001055542,"MEAN_MOTION_DOT":3.81e-6,"MEAN_MOTION_DDOT":0},{"OBJECT_NAME":"ONEWEB-0701","OBJECT_ID":"2024-188P","EPOCH":"2026-02-23T00:04:15.940992","MEAN_MOTION":13.10370756,"ECCENTRICITY":0.00024721,"INCLINATION":87.8764,"RA_OF_ASC_NODE":59.0061,"ARG_OF_PERICENTER":105.8487,"MEAN_ANOMALY":254.2913,"EPHEMERIS_TYPE":0,"CLASSIFICATION_TYPE":"U","NORAD_CAT_ID":61607,"ELEMENT_SET_NO":999,"REV_AT_EPOCH":6835,"BSTAR":0.0015476267,"MEAN_MOTION_DOT":5.53e-6,"MEAN_MOTION_DDOT":0},{"OBJECT_NAME":"ONEWEB-0702","OBJECT_ID":"2024-188Q","EPOCH":"2026-02-23T06:15:55.787040","MEAN_MOTION":13.11416657,"ECCENTRICITY":0.00027575,"INCLINATION":87.885,"RA_OF_ASC_NODE":43.6285,"ARG_OF_PERICENTER":98.5888,"MEAN_ANOMALY":261.5552,"EPHEMERIS_TYPE":0,"CLASSIFICATION_TYPE":"U","NORAD_CAT_ID":61608,"ELEMENT_SET_NO":999,"REV_AT_EPOCH":6955,"BSTAR":0.0017144341,"MEAN_MOTION_DOT":6.2e-6,"MEAN_MOTION_DDOT":0},{"OBJECT_NAME":"ONEWEB-0704","OBJECT_ID":"2024-188R","EPOCH":"2026-02-22T23:47:33.363168","MEAN_MOTION":13.10374587,"ECCENTRICITY":0.00027817,"INCLINATION":87.8779,"RA_OF_ASC_NODE":58.9829,"ARG_OF_PERICENTER":99.009,"MEAN_ANOMALY":261.1352,"EPHEMERIS_TYPE":0,"CLASSIFICATION_TYPE":"U","NORAD_CAT_ID":61609,"ELEMENT_SET_NO":999,"REV_AT_EPOCH":6833,"BSTAR":0.0016339371,"MEAN_MOTION_DOT":5.83e-6,"MEAN_MOTION_DDOT":0},{"OBJECT_NAME":"ONEWEB-0705","OBJECT_ID":"2024-188S","EPOCH":"2026-02-23T07:14:32.044128","MEAN_MOTION":13.10373186,"ECCENTRICITY":0.00029018,"INCLINATION":87.8766,"RA_OF_ASC_NODE":58.9355,"ARG_OF_PERICENTER":77.2988,"MEAN_ANOMALY":282.8463,"EPHEMERIS_TYPE":0,"CLASSIFICATION_TYPE":"U","NORAD_CAT_ID":61610,"ELEMENT_SET_NO":999,"REV_AT_EPOCH":6054,"BSTAR":0.0019677926,"MEAN_MOTION_DOT":7.0e-6,"MEAN_MOTION_DDOT":0},{"OBJECT_NAME":"ONEWEB-0706","OBJECT_ID":"2024-188T","EPOCH":"2026-02-23T06:53:00.231936","MEAN_MOTION":13.10375904,"ECCENTRICITY":0.00025028,"INCLINATION":87.8763,"RA_OF_ASC_NODE":58.9521,"ARG_OF_PERICENTER":90.6173,"MEAN_ANOMALY":269.5242,"EPHEMERIS_TYPE":0,"CLASSIFICATION_TYPE":"U","NORAD_CAT_ID":61611,"ELEMENT_SET_NO":999,"REV_AT_EPOCH":6846,"BSTAR":0.00056349047,"MEAN_MOTION_DOT":2.09e-6,"MEAN_MOTION_DDOT":0},{"OBJECT_NAME":"ONEWEB-0707","OBJECT_ID":"2024-188U","EPOCH":"2026-02-22T18:12:47.061792","MEAN_MOTION":13.10437138,"ECCENTRICITY":2.408e-5,"INCLINATION":87.8769,"RA_OF_ASC_NODE":59.0428,"ARG_OF_PERICENTER":132.6815,"MEAN_ANOMALY":227.4333,"EPHEMERIS_TYPE":0,"CLASSIFICATION_TYPE":"U","NORAD_CAT_ID":61612,"ELEMENT_SET_NO":999,"REV_AT_EPOCH":6833,"BSTAR":0.025088805,"MEAN_MOTION_DOT":8.787e-5,"MEAN_MOTION_DDOT":0}]
