ONEWEB-0688             
1 61596U 24188C   26053.89960115 -.00000001  00000+0 -36314-4 0  9998
2 61596  87.9110  28.5837 0001990  44.9645 315.1648 13.17649023 70842
ONEWEB-0689             
1 61597U 24188D   26054.20340102  .00000227  00000+0  60395-3 0  9996
2 61597  87.8849  43.7036 0002190  83.9076 276.2302 13.11415791 69518
ONEWEB-0690             
1 61598U 24188E   26053.98467977 -.00000417  00000+0 -12114-2 0  9999
2 61598  87.8846  43.7675 0001310 102.5904 257.5371 13.11413493 69667
ONEWEB-0691             
1 61599U 24188F   26054.20848232 -.00000044  00000+0 -15937-3 0  9996
2 61599  87.8852  43.6227 0001870  73.0377 287.0956 13.11416245 69546
ONEWEB-0692             
1 61600U 24188G   26054.22882638 -.00000441  00000+0 -12809-2 0  9994
2 61600  87.8835  43.7536 0002594 101.5314 258.6106 13.11418328 69530
ONEWEB-0693             
1 61601U 24188H   26054.21515680  .00000058  00000+0  11693-3 0  9997
2 61601  87.9111  28.5426 0001045  91.8465 268.2786 13.17650050 70872
ONEWEB-0695             
1 61602U 24188J   26054.20511398  .00000172  00000+0  45035-3 0  9993
2 61602  87.8835  43.7490 0002403  89.6310 270.5093 13.11415294 69528
ONEWEB-0697             
1 61603U 24188K   26054.23731006 -.00000171  00000+0 -51695-3 0  9997
2 61603  87.8835  43.7317 0002448 100.8061 259.3343 13.11418943 69511
ONEWEB-0698             
1 61604U 24188L   26054.21526435 -.00000263  00000+0 -77847-3 0  9993
2 61604  87.8832  43.7520 0002078 121.3759 238.7573 13.11416807 69531
ONEWEB-0699             
1 61605U 24188M   26054.06106065  .00000267  00000+0  72926-3 0  9995
2 61605  87.8769  58.9948 0002310 103.4392 256.6993 13.10375049 68362
ONEWEB-0700             
1 61606U 24188N   26054.29178935  .00000381  00000+0  10555-2 0  9992
2 61606  87.8782  58.8415 0002529  94.5658 265.5759 13.10375073 68381
ONEWEB-0701             
1 61607U 24188P   26054.00296228  .00000553  00000+0  15476-2 0  9996
2 61607  87.8764  59.0061 0002472 105.8487 254.2913 13.10370756 68352
ONEWEB-0702             
1 61608U 24188Q   26054.26106235  .00000620  00000+0  17144-2 0  9992
2 61608  87.8850  43.6285 0002757  98.5888 261.5552 13.11416657 69550
ONEWEB-0704             
1 61609U 24188R   26053.99135837  .00000583  00000+0  16339-2 0  9995
2 61609  87.8779  58.9829 0002781  99.0090 261.1352 13.10374587 68335
ONEWEB-0705             
1 61610U 24188S   26054.30175977  .00000700  00000+0  19678-2 0  9992
2 61610  87.8766  58.9355 0002901  77.2988 282.8463 13.10373186 60547
ONEWEB-0706             
1 61611U 24188T   26054.28680824  .00000209  00000+0  56349-3 0  9993
2 61611  87.8763  58.9521 0002502  90.6173 269.5242 13.10375904 68468
ONEWEB-0707             
1 61612U 24188U   26053.75887803  .00008787  00000+0  25089-1 0  9995
2 61612  87.8769  59.0428 0000240 132.6815 227.4333 13.10437138 68338
